{
  "type": "FeatureCollection",
  "features": [
    {
      "type": "Feature",
      "properties": {
        "norad_id": 39766,
        "name": "ALOS-2",
        "group": "resource",
        "lat": 79.63836445421875,
        "lon": 31.199190594137363,
        "alt_km": 622.7564524340441,
        "timestamp": "2025-12-11T22:43:46.928565+00:00",
        "meta_object_name": "ALOS-2",
        "meta_object_id": "2014-029A",
        "meta_epoch": "2025-12-11T12:36:55.639008",
        "meta_mean_motion": 14.79464109,
        "meta_eccentricity": 0.0001283,
        "meta_inclination": 97.9223,
        "meta_ra_of_asc_node": 80.3889,
        "meta_arg_of_pericenter": 97.9524,
        "meta_mean_anomaly": 262.1834,
        "meta_ephemeris_type": 0,
        "meta_classification_type": "U",
        "meta_norad_cat_id": 39766,
        "meta_element_set_no": 999,
        "meta_rev_at_epoch": 62383,
        "meta_bstar": 0.0004677718,
        "meta_mean_motion_dot": 3.443e-05,
        "meta_mean_motion_ddot": 0,
        "tle_line1": "1 39766U 14029A   25345.52564397  .00003443  00000+0  46777-3 0  9994",
        "tle_line2": "2 39766  97.9223  80.3889 0001283  97.9524 262.1834 14.79464109623834"
      },
      "geometry": {
        "type": "Point",
        "coordinates": [
          31.199190594137363,
          79.63836445421875
        ]
      }
    },
    {
      "type": "Feature",
      "properties": {
        "norad_id": 40010,
        "name": "KAZEOSAT 2",
        "group": "resource",
        "lat": -22.57276892521086,
        "lon": -166.53674791693922,
        "alt_km": 621.7694846484046,
        "timestamp": "2025-12-11T22:43:46.928575+00:00",
        "meta_object_name": "KAZEOSAT 2",
        "meta_object_id": "2014-033A",
        "meta_epoch": "2025-12-11T14:44:50.181216",
        "meta_mean_motion": 14.85166824,
        "meta_eccentricity": 0.00075948,
        "meta_inclination": 97.5506,
        "meta_ra_of_asc_node": 189.9871,
        "meta_arg_of_pericenter": 210.4879,
        "meta_mean_anomaly": 149.5896,
        "meta_ephemeris_type": 0,
        "meta_classification_type": "U",
        "meta_norad_cat_id": 40010,
        "meta_element_set_no": 999,
        "meta_rev_at_epoch": 62111,
        "meta_bstar": 0.00018519448,
        "meta_mean_motion_dot": 1.536e-05,
        "meta_mean_motion_ddot": 0,
        "tle_line1": "1 40010U 14033A   25345.61446969  .00001536  00000+0  18519-3 0  9991",
        "tle_line2": "2 40010  97.5506 189.9871 0007594 210.4879 149.5896 14.85166824621116"
      },
      "geometry": {
        "type": "Point",
        "coordinates": [
          -166.53674791693922,
          -22.57276892521086
        ]
      }
    },
    {
      "type": "Feature",
      "properties": {
        "norad_id": 40011,
        "name": "HODOYOSHI-4",
        "group": "resource",
        "lat": 57.42752903731207,
        "lon": 162.90182598917062,
        "alt_km": 613.6092700941808,
        "timestamp": "2025-12-11T22:43:46.928586+00:00",
        "meta_object_name": "HODOYOSHI-4",
        "meta_object_id": "2014-033B",
        "meta_epoch": "2025-12-11T14:23:43.319616",
        "meta_mean_motion": 14.8747491,
        "meta_eccentricity": 0.00231622,
        "meta_inclination": 97.5414,
        "meta_ra_of_asc_node": 174.54,
        "meta_arg_of_pericenter": 204.7082,
        "meta_mean_anomaly": 155.3028,
        "meta_ephemeris_type": 0,
        "meta_classification_type": "U",
        "meta_norad_cat_id": 40011,
        "meta_element_set_no": 999,
        "meta_rev_at_epoch": 62091,
        "meta_bstar": 0.00039824203,
        "meta_mean_motion_dot": 3.574e-05,
        "meta_mean_motion_ddot": 0,
        "tle_line1": "1 40011U 14033B   25345.59980694  .00003574  00000+0  39824-3 0  9993",
        "tle_line2": "2 40011  97.5414 174.5400 0023162 204.7082 155.3028 14.87474910620913"
      },
      "geometry": {
        "type": "Point",
        "coordinates": [
          162.90182598917062,
          57.42752903731207
        ]
      }
    },
    {
      "type": "Feature",
      "properties": {
        "norad_id": 40013,
        "name": "DEIMOS-2",
        "group": "resource",
        "lat": -19.96219205032071,
        "lon": 38.99149153462212,
        "alt_km": 594.1191691812883,
        "timestamp": "2025-12-11T22:43:46.928597+00:00",
        "meta_object_name": "DEIMOS-2",
        "meta_object_id": "2014-033D",
        "meta_epoch": "2025-12-11T15:24:08.751744",
        "meta_mean_motion": 14.92965831,
        "meta_eccentricity": 8.596e-05,
        "meta_inclination": 97.6061,
        "meta_ra_of_asc_node": 221.4784,
        "meta_arg_of_pericenter": 91.7559,
        "meta_mean_anomaly": 268.3759,
        "meta_ephemeris_type": 0,
        "meta_classification_type": "U",
        "meta_norad_cat_id": 40013,
        "meta_element_set_no": 999,
        "meta_rev_at_epoch": 60973,
        "meta_bstar": 0.00035168365,
        "meta_mean_motion_dot": 3.598e-05,
        "meta_mean_motion_ddot": 0,
        "tle_line1": "1 40013U 14033D   25345.64176796  .00003598  00000+0  35168-3 0  9994",
        "tle_line2": "2 40013  97.6061 221.4784 0000859  91.7559 268.3759 14.92965831609738"
      },
      "geometry": {
        "type": "Point",
        "coordinates": [
          38.99149153462212,
          -19.96219205032071
        ]
      }
    },
    {
      "type": "Feature",
      "properties": {
        "norad_id": 40015,
        "name": "HODOYOSHI-3",
        "group": "resource",
        "lat": -8.253407192615148,
        "lon": 152.92903551833672,
        "alt_km": 622.4681604766301,
        "timestamp": "2025-12-11T22:43:46.928607+00:00",
        "meta_object_name": "HODOYOSHI-3",
        "meta_object_id": "2014-033F",
        "meta_epoch": "2025-12-11T11:26:43.975104",
        "meta_mean_motion": 14.84800775,
        "meta_eccentricity": 0.00318658,
        "meta_inclination": 97.6199,
        "meta_ra_of_asc_node": 151.3668,
        "meta_arg_of_pericenter": 252.2457,
        "meta_mean_anomaly": 107.528,
        "meta_ephemeris_type": 0,
        "meta_classification_type": "U",
        "meta_norad_cat_id": 40015,
        "meta_element_set_no": 999,
        "meta_rev_at_epoch": 61976,
        "meta_bstar": 0.0003586249,
        "meta_mean_motion_dot": 3.019e-05,
        "meta_mean_motion_ddot": 0,
        "tle_line1": "1 40015U 14033F   25345.47689786  .00003019  00000+0  35862-3 0  9994",
        "tle_line2": "2 40015  97.6199 151.3668 0031865 252.2457 107.5280 14.84800775619769"
      },
      "geometry": {
        "type": "Point",
        "coordinates": [
          152.92903551833672,
          -8.253407192615148
        ]
      }
    },
    {
      "type": "Feature",
      "properties": {
        "norad_id": 40053,
        "name": "SPOT 7",
        "group": "resource",
        "lat": 36.72496435891877,
        "lon": -125.8680647601948,
        "alt_km": 687.6019145941864,
        "timestamp": "2025-12-11T22:43:46.928617+00:00",
        "meta_object_name": "SPOT 7",
        "meta_object_id": "2014-034A",
        "meta_epoch": "2025-12-11T15:30:09.124416",
        "meta_mean_motion": 14.60732261,
        "meta_eccentricity": 0.00015593,
        "meta_inclination": 98.0901,
        "meta_ra_of_asc_node": 47.7462,
        "meta_arg_of_pericenter": 87.319,
        "meta_mean_anomaly": 272.8189,
        "meta_ephemeris_type": 0,
        "meta_classification_type": "U",
        "meta_norad_cat_id": 40053,
        "meta_element_set_no": 999,
        "meta_rev_at_epoch": 60975,
        "meta_bstar": 0.00023342874,
        "meta_mean_motion_dot": 1.093e-05,
        "meta_mean_motion_ddot": 0,
        "tle_line1": "1 40053U 14034A   25345.64593894  .00001093  00000+0  23343-3 0  9991",
        "tle_line2": "2 40053  98.0901  47.7462 0001559  87.3190 272.8189 14.60732261609755"
      },
      "geometry": {
        "type": "Point",
        "coordinates": [
          -125.8680647601948,
          36.72496435891877
        ]
      }
    },
    {
      "type": "Feature",
      "properties": {
        "norad_id": 40072,
        "name": "SKYSAT-B",
        "group": "resource",
        "lat": 1.753886367396573,
        "lon": -70.64693640449073,
        "alt_km": 612.7610380014285,
        "timestamp": "2025-12-11T22:43:46.928627+00:00",
        "meta_object_name": "SKYSAT-B",
        "meta_object_id": "2014-037D",
        "meta_epoch": "2025-12-11T09:48:17.337600",
        "meta_mean_motion": 14.87320966,
        "meta_eccentricity": 0.00060438,
        "meta_inclination": 98.3608,
        "meta_ra_of_asc_node": 289.0442,
        "meta_arg_of_pericenter": 154.2162,
        "meta_mean_anomaly": 205.9355,
        "meta_ephemeris_type": 0,
        "meta_classification_type": "U",
        "meta_norad_cat_id": 40072,
        "meta_element_set_no": 999,
        "meta_rev_at_epoch": 61804,
        "meta_bstar": 0.00037266548,
        "meta_mean_motion_dot": 3.304e-05,
        "meta_mean_motion_ddot": 0,
        "tle_line1": "1 40072U 14037D   25345.40853400  .00003304  00000+0  37267-3 0  9998",
        "tle_line2": "2 40072  98.3608 289.0442 0006043 154.2162 205.9355 14.87320966618046"
      },
      "geometry": {
        "type": "Point",
        "coordinates": [
          -70.64693640449073,
          1.753886367396573
        ]
      }
    }
  ]
}